{
    "links": {
        "self": "http://www.neowsapp.com/rest/v1/neo/3609119?api_key=iIulBulltgU6a56xZRHN4H3l9WmuAYTsLGpBGhQ2"
    },
    "id": "3609119",
    "neo_reference_id": "3609119",
    "name": "(2012 SJ32)",
    "designation": "2012 SJ32",
    "nasa_jpl_url": "http://ssd.jpl.nasa.gov/sbdb.cgi?sstr=3609119",
    "absolute_magnitude_h": 25.1,
    "estimated_diameter": {
        "kilometers": {
            "estimated_diameter_min": 0.0253837029,
            "estimated_diameter_max": 0.0567596853
        },
        "meters": {
            "estimated_diameter_min": 25.3837029364,
            "estimated_diameter_max": 56.7596852866
        },
        "miles": {
            "estimated_diameter_min": 0.0157726969,
            "estimated_diameter_max": 0.0352688224
        },
        "feet": {
            "estimated_diameter_min": 83.279867942,
            "estimated_diameter_max": 186.2194458756
        }
    },
    "is_potentially_hazardous_asteroid": false,
    "close_approach_data": [
        {
            "close_approach_date": "2012-09-28",
            "close_approach_date_full": "2012-Sep-28 04:41",
            "epoch_date_close_approach": 1348807260000,
            "relative_velocity": {
                "kilometers_per_second": "8.07448779",
                "kilometers_per_hour": "29068.1560440134",
                "miles_per_hour": "18061.8217374593"
            },
            "miss_distance": {
                "astronomical": "0.0295830222",
                "lunar": "11.5077956358",
                "kilometers": "4425557.109282714",
                "miles": "2749913.6725168932"
            },
            "orbiting_body": "Earth"
        }
    ],
    "orbital_data": {
        "orbit_id": "6",
        "orbit_determination_date": "2017-04-06 08:48:52",
        "first_observation_date": "2012-09-22",
        "last_observation_date": "2012-09-26",
        "data_arc_in_days": 4,
        "observations_used": 22,
        "orbit_uncertainty": "8",
        "minimum_orbit_intersection": ".00939769",
        "jupiter_tisserand_invariant": "4.518",
        "epoch_osculation": "2456194.5",
        "eccentricity": ".3679001711989628",
        "semi_major_axis": "1.474380126167183",
        "inclination": "2.097166547206646",
        "ascending_node_longitude": "175.6697165933235",
        "orbital_period": "653.9019450253453",
        "perihelion_distance": ".9319554253379282",
        "perihelion_argument": "236.9301728238152",
        "aphelion_distance": "2.016804826996438",
        "perihelion_time": "2456236.623558610953",
        "mean_anomaly": "336.8092430137132",
        "mean_motion": ".5505412588825476",
        "equinox": "J2000",
        "orbit_class": {
            "orbit_class_type": "APO",
            "orbit_class_description": "Near-Earth asteroid orbits which cross the Earth’s orbit similar to that of 1862 Apollo",
            "orbit_class_range": "a (semi-major axis) > 1.0 AU; q (perihelion) < 1.017 AU"
        }
    },
    "is_sentry_object": false
}